{
  "type": "FeatureCollection",
  "features": [
    {
      "type": "Feature",
      "properties": {
        "id": "b1",
        "strasse": "An der Radrunde",
        "art": "Kanalbau",
        "wirkung": "sperrung",
        "verzoegerung_pct": 0,
        "von": "2026-10-05",
        "bis": "2026-11-20",
        "kanten": [
          [
            "288999309",
            "241012934"
          ]
        ],
        "quelle": "fiktiv"
      },
      "geometry": {
        "type": "MultiLineString",
        "coordinates": [
          [
            [
              11.095166,
              49.370032
            ],
            [
              11.095596,
              49.369989
            ],
            [
              11.09577,
              49.369971
            ],
            [
              11.095948,
              49.369954
            ],
            [
              11.096015,
              49.369949
            ],
            [
              11.096076,
              49.369942
            ],
            [
              11.096189,
              49.369936
            ],
            [
              11.096311,
              49.369935
            ],
            [
              11.096418,
              49.369939
            ],
            [
              11.096662,
              49.369954
            ],
            [
              11.096774,
              49.369969
            ],
            [
              11.096856,
              49.369985
            ],
            [
              11.096914,
              49.370009
            ],
            [
              11.096944,
              49.370026
            ],
            [
              11.096968,
              49.370044
            ]
          ]
        ]
      }
    },
    {
      "type": "Feature",
      "properties": {
        "id": "b2",
        "strasse": "Eibacher Hauptstraße",
        "art": "Straßenbau",
        "wirkung": "einspurig",
        "verzoegerung_pct": 40,
        "von": "2026-10-08",
        "bis": "2026-11-20",
        "kanten": [
          [
            "30984670",
            "30984683"
          ],
          [
            "30984684",
            "282256839"
          ]
        ],
        "quelle": "fiktiv"
      },
      "geometry": {
        "type": "MultiLineString",
        "coordinates": [
          [
            [
              11.035664,
              49.402224
            ],
            [
              11.035623,
              49.402296
            ],
            [
              11.035587,
              49.402361
            ],
            [
              11.035521,
              49.402502
            ],
            [
              11.035421,
              49.402736
            ],
            [
              11.035381,
              49.402843
            ],
            [
              11.035357,
              49.40291
            ],
            [
              11.035343,
              49.402956
            ],
            [
              11.03533,
              49.403003
            ],
            [
              11.035318,
              49.403055
            ],
            [
              11.035311,
              49.403087
            ],
            [
              11.035292,
              49.403146
            ],
            [
              11.035223,
              49.403343
            ]
          ],
          [
            [
              11.035079,
              49.40399
            ],
            [
              11.035068,
              49.404101
            ],
            [
              11.035061,
              49.404212
            ],
            [
              11.035058,
              49.404425
            ],
            [
              11.035058,
              49.404772
            ],
            [
              11.035065,
              49.404882
            ]
          ]
        ]
      }
    },
    {
      "type": "Feature",
      "properties": {
        "id": "b3",
        "strasse": "Harsdörfferstraße",
        "art": "Fernwärme",
        "wirkung": "sperrung",
        "verzoegerung_pct": 0,
        "von": "2026-10-11",
        "bis": "2026-11-20",
        "kanten": [
          [
            "900437961",
            "900471800"
          ]
        ],
        "quelle": "fiktiv"
      },
      "geometry": {
        "type": "MultiLineString",
        "coordinates": [
          [
            [
              11.095,
              49.443121
            ],
            [
              11.094796,
              49.44312
            ],
            [
              11.094624,
              49.443118
            ],
            [
              11.094592,
              49.443117
            ],
            [
              11.094463,
              49.443107
            ],
            [
              11.094357,
              49.443096
            ],
            [
              11.094184,
              49.443072
            ],
            [
              11.094084,
              49.443055
            ],
            [
              11.093952,
              49.443027
            ],
            [
              11.093879,
              49.443009
            ],
            [
              11.093808,
              49.44299
            ],
            [
              11.093734,
              49.442965
            ],
            [
              11.093657,
              49.442936
            ],
            [
              11.093607,
              49.442914
            ],
            [
              11.093562,
              49.442893
            ],
            [
              11.093486,
              49.442853
            ],
            [
              11.093447,
              49.442829
            ],
            [
              11.0934,
              49.442795
            ],
            [
              11.093296,
              49.442717
            ],
            [
              11.093252,
              49.442685
            ]
          ]
        ]
      }
    },
    {
      "type": "Feature",
      "properties": {
        "id": "b4",
        "strasse": "Beuthener Straße",
        "art": "Gleisbau Tram",
        "wirkung": "einspurig",
        "verzoegerung_pct": 35,
        "von": "2026-10-04",
        "bis": "2026-11-20",
        "kanten": [
          [
            "249440501",
            "1533304364"
          ],
          [
            "959576445",
            "249440491"
          ]
        ],
        "quelle": "fiktiv"
      },
      "geometry": {
        "type": "MultiLineString",
        "coordinates": [
          [
            [
              11.13159,
              49.428149
            ],
            [
              11.13151,
              49.428213
            ],
            [
              11.131429,
              49.428277
            ],
            [
              11.131265,
              49.428404
            ],
            [
              11.131148,
              49.42849
            ],
            [
              11.131093,
              49.428531
            ],
            [
              11.130913,
              49.428656
            ],
            [
              11.1308,
              49.428732
            ],
            [
              11.130683,
              49.428804
            ],
            [
              11.130566,
              49.428874
            ],
            [
              11.130442,
              49.428944
            ],
            [
              11.130241,
              49.429059
            ],
            [
              11.13004,
              49.429166
            ],
            [
              11.129865,
              49.429255
            ],
            [
              11.12973,
              49.429316
            ],
            [
              11.129596,
              49.429367
            ],
            [
              11.129553,
              49.429381
            ],
            [
              11.129442,
              49.429419
            ],
            [
              11.129279,
              49.429472
            ],
            [
              11.129135,
              49.429518
            ],
            [
              11.12902,
              49.42956
            ],
            [
              11.128906,
              49.429605
            ],
            [
              11.128796,
              49.429651
            ],
            [
              11.128403,
              49.429816
            ],
            [
              11.127555,
              49.430159
            ],
            [
              11.127478,
              49.430199
            ],
            [
              11.127413,
              49.43025
            ],
            [
              11.127316,
              49.430338
            ]
          ],
          [
            [
              11.127157,
              49.430114
            ],
            [
              11.127172,
              49.430091
            ],
            [
              11.127191,
              49.430072
            ],
            [
              11.127229,
              49.430047
            ],
            [
              11.127315,
              49.430007
            ],
            [
              11.12823,
              49.429639
            ],
            [
              11.128627,
              49.429478
            ],
            [
              11.128915,
              49.429358
            ],
            [
              11.129208,
              49.429238
            ],
            [
              11.129227,
              49.42923
            ],
            [
              11.129292,
              49.429203
            ],
            [
              11.129483,
              49.429119
            ],
            [
              11.129634,
              49.429047
            ],
            [
              11.129736,
              49.428997
            ],
            [
              11.129865,
              49.42893
            ],
            [
              11.129983,
              49.428865
            ],
            [
              11.130118,
              49.428784
            ],
            [
              11.130235,
              49.428714
            ],
            [
              11.130449,
              49.42858
            ],
            [
              11.130553,
              49.428512
            ],
            [
              11.130656,
              49.428443
            ],
            [
              11.130756,
              49.428375
            ],
            [
              11.13085,
              49.428305
            ],
            [
              11.130954,
              49.428224
            ],
            [
              11.131057,
              49.428144
            ],
            [
              11.13115,
              49.428061
            ],
            [
              11.131239,
              49.427978
            ]
          ]
        ]
      }
    },
    {
      "type": "Feature",
      "properties": {
        "id": "b5",
        "strasse": "Gebersdorfer Straße",
        "art": "Leitungsbau",
        "wirkung": "verzoegerung",
        "verzoegerung_pct": 25,
        "von": "2026-10-11",
        "bis": "2026-11-13",
        "kanten": [
          [
            "253853516",
            "1583577636"
          ],
          [
            "1583577636",
            "253853516"
          ]
        ],
        "quelle": "fiktiv"
      },
      "geometry": {
        "type": "MultiLineString",
        "coordinates": [
          [
            [
              11.018027,
              49.420156
            ],
            [
              11.018221,
              49.42002
            ],
            [
              11.018418,
              49.419871
            ],
            [
              11.018612,
              49.419722
            ],
            [
              11.018651,
              49.419692
            ],
            [
              11.018955,
              49.419477
            ],
            [
              11.019536,
              49.419053
            ],
            [
              11.01988,
              49.418796
            ],
            [
              11.020189,
              49.418583
            ],
            [
              11.020283,
              49.418524
            ],
            [
              11.020744,
              49.418253
            ],
            [
              11.020828,
              49.41821
            ],
            [
              11.020955,
              49.418152
            ],
            [
              11.02102,
              49.418123
            ]
          ],
          [
            [
              11.02102,
              49.418123
            ],
            [
              11.020955,
              49.418152
            ],
            [
              11.020828,
              49.41821
            ],
            [
              11.020744,
              49.418253
            ],
            [
              11.020283,
              49.418524
            ],
            [
              11.020189,
              49.418583
            ],
            [
              11.01988,
              49.418796
            ],
            [
              11.019536,
              49.419053
            ],
            [
              11.018955,
              49.419477
            ],
            [
              11.018651,
              49.419692
            ],
            [
              11.018612,
              49.419722
            ],
            [
              11.018418,
              49.419871
            ],
            [
              11.018221,
              49.42002
            ],
            [
              11.018027,
              49.420156
            ]
          ]
        ]
      }
    },
    {
      "type": "Feature",
      "properties": {
        "id": "b6",
        "strasse": "Flughafenstraße",
        "art": "Brückensanierung",
        "wirkung": "sperrung",
        "verzoegerung_pct": 0,
        "von": "2026-10-12",
        "bis": "2026-11-03",
        "kanten": [
          [
            "16534238",
            "359179155"
          ],
          [
            "359179155",
            "16534238"
          ]
        ],
        "quelle": "fiktiv"
      },
      "geometry": {
        "type": "MultiLineString",
        "coordinates": [
          [
            [
              11.082755,
              49.490847
            ],
            [
              11.082643,
              49.490598
            ],
            [
              11.082624,
              49.490556
            ],
            [
              11.082338,
              49.489928
            ],
            [
              11.082216,
              49.489655
            ],
            [
              11.082186,
              49.489585
            ],
            [
              11.082162,
              49.489531
            ],
            [
              11.082131,
              49.489456
            ],
            [
              11.082104,
              49.48938
            ],
            [
              11.08208,
              49.489299
            ],
            [
              11.082064,
              49.489236
            ],
            [
              11.082052,
              49.489172
            ],
            [
              11.082045,
              49.489127
            ],
            [
              11.082036,
              49.488976
            ],
            [
              11.082035,
              49.488896
            ],
            [
              11.082041,
              49.488762
            ],
            [
              11.082062,
              49.488456
            ],
            [
              11.082082,
              49.488131
            ],
            [
              11.082111,
              49.487771
            ],
            [
              11.082126,
              49.487553
            ],
            [
              11.082154,
              49.487174
            ],
            [
              11.082181,
              49.486779
            ],
            [
              11.082243,
              49.485937
            ],
            [
              11.082245,
              49.485907
            ],
            [
              11.082252,
              49.485785
            ],
            [
              11.082259,
              49.485597
            ],
            [
              11.082258,
              49.485448
            ]
          ],
          [
            [
              11.082258,
              49.485448
            ],
            [
              11.082259,
              49.485597
            ],
            [
              11.082252,
              49.485785
            ],
            [
              11.082245,
              49.485907
            ],
            [
              11.082243,
              49.485937
            ],
            [
              11.082181,
              49.486779
            ],
            [
              11.082154,
              49.487174
            ],
            [
              11.082126,
              49.487553
            ],
            [
              11.082111,
              49.487771
            ],
            [
              11.082082,
              49.488131
            ],
            [
              11.082062,
              49.488456
            ],
            [
              11.082041,
              49.488762
            ],
            [
              11.082035,
              49.488896
            ],
            [
              11.082036,
              49.488976
            ],
            [
              11.082045,
              49.489127
            ],
            [
              11.082052,
              49.489172
            ],
            [
              11.082064,
              49.489236
            ],
            [
              11.08208,
              49.489299
            ],
            [
              11.082104,
              49.48938
            ],
            [
              11.082131,
              49.489456
            ],
            [
              11.082162,
              49.489531
            ],
            [
              11.082186,
              49.489585
            ],
            [
              11.082216,
              49.489655
            ],
            [
              11.082338,
              49.489928
            ],
            [
              11.082624,
              49.490556
            ],
            [
              11.082643,
              49.490598
            ],
            [
              11.082755,
              49.490847
            ]
          ]
        ]
      }
    },
    {
      "type": "Feature",
      "properties": {
        "id": "b7",
        "strasse": "Valznerweiherstraße",
        "art": "Fahrbahnerneuerung",
        "wirkung": "einspurig",
        "verzoegerung_pct": 45,
        "von": "2026-10-03",
        "bis": "2026-11-05",
        "kanten": [
          [
            "32689143",
            "1546427012"
          ],
          [
            "1546427012",
            "32689143"
          ]
        ],
        "quelle": "fiktiv"
      },
      "geometry": {
        "type": "MultiLineString",
        "coordinates": [
          [
            [
              11.123478,
              49.441855
            ],
            [
              11.123285,
              49.441961
            ],
            [
              11.123085,
              49.442057
            ],
            [
              11.122674,
              49.442244
            ],
            [
              11.122392,
              49.442376
            ],
            [
              11.122248,
              49.442444
            ],
            [
              11.121912,
              49.442604
            ],
            [
              11.121765,
              49.442672
            ]
          ],
          [
            [
              11.121765,
              49.442672
            ],
            [
              11.121912,
              49.442604
            ],
            [
              11.122248,
              49.442444
            ],
            [
              11.122392,
              49.442376
            ],
            [
              11.122674,
              49.442244
            ],
            [
              11.123085,
              49.442057
            ],
            [
              11.123285,
              49.441961
            ],
            [
              11.123478,
              49.441855
            ]
          ]
        ]
      }
    },
    {
      "type": "Feature",
      "properties": {
        "id": "b8",
        "strasse": "Am Kressenstein",
        "art": "Glasfaser",
        "wirkung": "verzoegerung",
        "verzoegerung_pct": 20,
        "von": "2026-10-23",
        "bis": "2026-11-22",
        "kanten": [
          [
            "1528792443",
            "1528800943"
          ]
        ],
        "quelle": "fiktiv"
      },
      "geometry": {
        "type": "MultiLineString",
        "coordinates": [
          [
            [
              11.047083,
              49.507007
            ],
            [
              11.047084,
              49.507142
            ],
            [
              11.047081,
              49.50724
            ],
            [
              11.04707,
              49.50736
            ],
            [
              11.047056,
              49.507479
            ],
            [
              11.04704,
              49.507572
            ],
            [
              11.04701,
              49.507727
            ],
            [
              11.046991,
              49.507805
            ],
            [
              11.046967,
              49.507886
            ],
            [
              11.046929,
              49.507993
            ],
            [
              11.046718,
              49.508529
            ],
            [
              11.046543,
              49.508958
            ],
            [
              11.046449,
              49.509197
            ],
            [
              11.046418,
              49.509282
            ],
            [
              11.04639,
              49.509379
            ],
            [
              11.046369,
              49.509488
            ],
            [
              11.046361,
              49.509601
            ],
            [
              11.046361,
              49.509689
            ],
            [
              11.046367,
              49.509776
            ],
            [
              11.046374,
              49.509821
            ],
            [
              11.046394,
              49.509923
            ],
            [
              11.046416,
              49.509999
            ],
            [
              11.046443,
              49.510075
            ],
            [
              11.046508,
              49.510228
            ],
            [
              11.046676,
              49.510593
            ]
          ]
        ]
      }
    }
  ]
}